MALLIGYONG-1            
1 58400U 23179A   23356.46273647  .00007498  00000+0  33439-3 0  9999
2 58400  97.4263 240.8316 0015994 163.7614 196.4138 15.21574942  4691
